ZHONGXING-6C            
1 44067U 19012A   25232.73227854 -.00000354  00000+0  00000+0 0  9997
2 44067   0.0753 280.3148 0008172 142.4825 300.5604  1.00273455 23727
WGS 10 (USA 291)        
1 44071U 19014A   25212.91694802  .00000054  00000+0  00000+0 0  9999
2 44071   0.0157  88.0510 0000267 111.7150 140.4000  1.00270594 23400
TIANLIAN 2-01           
1 44076U 19017A   25233.12000131 -.00000125  00000+0  00000+0 0  9999
2 44076   0.0404 259.3140 0002592 287.9432 262.6361  1.00272057 23632
ARABSAT-6A              
1 44186U 19021A   25232.91239413  .00000135  00000+0  00000+0 0  9999
2 44186   0.0520 316.9397 0005244 266.7749 104.7124  1.00272570 23149
BEIDOU-3 IGSO-1         
1 44204U 19023A   25229.88586639 -.00000201  00000+0  00000+0 0  9994
2 44204  58.2691  40.7803 0024316 215.4023 148.2877  1.00278704  4170
BEIDOU-2 G8             
1 44231U 19027A   25232.63375318 -.00000267  00000+0  00000+0 0  9997
2 44231   1.8501  75.1931 0003857 233.3679  33.2668  1.00267634 23061
YAMAL 601               
1 44307U 19031A   25232.61480471  .00000102  00000+0  00000+0 0  9998
2 44307   0.0141 126.3333 0002504  22.5353  90.6373  1.00271536 22904
AT&T T-16               
1 44333U 19034A   25232.60461312 -.00000133  00000+0  00000+0 0  9997
2 44333   0.0222  93.5572 0000602 256.6393  95.7643  1.00270760 22616
EUTELSAT 7C             
1 44334U 19034B   25232.60648468  .00000030  00000+0  00000+0 0  9992
2 44334   0.0727 186.3867 0003089 311.7628  56.3636  1.00270657  3823
BEIDOU-3 IGSO-2         
1 44337U 19035A   25232.76523204 -.00000184  00000+0  00000+0 0  9994
2 44337  55.2151 161.5039 0035098 209.6855 350.5917  1.00250652 22653
COSMOS 2539             
1 44457U 19048A   25232.60752469  .00000063  00000+0  00000+0 0  9996
2 44457   0.0192 117.6028 0000380  25.6516  56.6088  1.00271381 22212
EDRS-C                  
1 44475U 19049A   25232.77614118 -.00000281  00000+0  00000+0 0  9996
2 44475   0.0455 106.7044 0001156  63.0427 221.4519  1.00274765 22197
INTELSAT 39 (IS-39)     
1 44476U 19049B   25232.84628331  .00000015  00000+0  00000+0 0  9991
2 44476   0.0240 117.3106 0001104 204.2572  14.4454  1.00269109 22116
AMOS-17                 
1 44479U 19050A   25232.82266909  .00000090  00000+0  00000+0 0  9996
2 44479   0.0076  87.2824 0002084  67.7133 127.5288  1.00271032 22176
AEHF-5 (USA 292)        
1 44481U 19051A   25232.76586207 -.00000275  00000+0  00000+0 0  9995
2 44481   1.8646 318.1033 0064663   9.5517  10.4746  1.00271596 22253
EUTELSAT 5 WEST B       
1 44624U 19067A   25232.60414468 -.00000061  00000+0  00000+0 0  9996
2 44624   0.0973 306.8134 0002957 209.7068  25.1110  1.00271778 21423
MEV-1                   
1 44625U 19067B   25212.93600035 -.00000138  00000+0  00000+0 0  9993
2 44625   0.3397  82.5138 0000340 231.5229 128.8627  1.00277994 21100
TJS-4                   
1 44637U 19070A   25232.85739388 -.00000189  00000+0  00000+0 0  9993
2 44637   0.0573 271.7246 0002434 245.9154 203.9464  1.00273592 21452
BEIDOU-3 IGSO-3         
1 44709U 19073A   25231.54702849 -.00000159  00000+0  00000+0 0  9990
2 44709  55.3163 284.1587 0045605 190.9336 169.0823  1.00279301 21437
TIBA-1                  
1 44800U 19080A   25232.88933608  .00000137  00000+0  00000+0 0  9992
2 44800   0.0574 350.8328 0002038 171.4170 162.8762  1.00268307 21043
INMARSAT GX5            
1 44801U 19080B   25232.60735135  .00000056  00000+0  00000+0 0  9998
2 44801   0.0436  31.3111 0002181 137.0762  30.4197  1.00271450  3771
JCSAT-18 (KACIFIC 1)    
1 44868U 19091A   25232.84467400 -.00000220  00000+0  00000+0 0  9990
2 44868   0.0520 288.7236 0000654 328.1733 166.6164  1.00269719 20992
ELEKTRO-L 3             
1 44903U 19095A   25233.86225366 -.00000116  00000+0  00000+0 0  9994
2 44903   0.0436  73.1833 0001479 147.8892 135.7969  1.00271398 20700
SHIJIAN-20 (SJ-20)      
1 44910U 19097A   25234.77124822 -.00000226  00000+0  00000+0 0  9992
2 44910   4.1507  78.7397 0004608 329.5638 288.3184  1.00271354 20708
TJS-5                   
1 44978U 20002A   25231.86502926 -.00000359  00000+0  00000+0 0  9993
2 44978   0.0469 105.5014 0003243  47.9842 233.8856  1.00269244 20673
GSAT-30                 
1 45026U 20005A   25232.85739388 -.00000184  00000+0  00000+0 0  9991
2 45026   0.0320 102.1910 0002803  18.4295 240.4593  1.00272586 20493
EUTELSAT KONNECT        
1 45027U 20005B   25232.60657134  .00000032  00000+0  00000+0 0  9994
2 45027   0.0633 100.1807 0001867  83.0819  11.4652  1.00275186 21316
JCSAT-17                
1 45245U 20013A   25232.77484117 -.00000327  00000+0  00000+0 0  9990
2 45245   5.4231 353.8757 0004148 158.9396 231.4616  1.00272696 20225
GEO-KOMPSAT-2B          
1 45246U 20013B   25232.79033412 -.00000363  00000+0  00000+0 0  9991
2 45246   0.0557 281.7872 0001394 303.7783 156.5612  1.00270731 20260
BEIDOU-3 G2             
1 45344U 20017A   25232.85808422 -.00000160  00000+0  00000+0 0  9997
2 45344   2.9852  41.6891 0001755 136.6572 180.0183  1.00272756 20244
AEHF-6 (USA 298)        
1 45465U 20022B   25232.77527451 -.00000315  00000+0  00000+0 0  9990
2 45465   3.2208 298.5625 0042001   9.6403  77.9980  1.00267627 20000
BEIDOU-3 G3             
1 45807U 20040A   25232.78409072 -.00000373  00000+0  00000+0 0  9993
2 45807   1.7116  65.2529 0004308 335.4598 321.4431  1.00274649 19059
APSTAR-6D               
1 45863U 20045A   25232.77432117 -.00000336  00000+0  00000+0 0  9994
2 45863   0.0453  98.5632 0002098 348.4390 295.0858  1.00271139 18845
KOREASAT 116            
1 45920U 20048A   25232.85253245 -.00000381  00000+0  00000+0 0  9993
2 45920   0.0239 106.7370 0001053  71.9716 213.8443  1.00269635 18624
EXPRESS 103             
1 45985U 20053A   25232.82891918 -.00000299  00000+0  00000+0 0  9990
2 45985   0.0101 142.2221 0000342 142.8353  79.2395  1.00272241 18636
EXPRESS 80              
1 45986U 20053B   25232.86268816  .00000000  00000+0  00000+0 0  9999
2 45986   0.0268 248.4372 0001385 161.4282 310.1467  1.00271258 18615
BSAT-4B                 
1 46112U 20056A   25232.78419817 -.00000369  00000+0  00000+0 0  9993
2 46112   0.0360 205.1767 0003880 304.1318 212.1888  1.00272244 18373
MEV-2                   
1 46113U 20056B   25233.39003382 -.00000030  00000+0  00000+0 0  9993
2 46113   0.0500 275.9118 0000994 275.4070 278.0547  1.00272137 19176
GALAXY 30 (G-30)        
1 46114U 20056C   25232.58031123  .00000019  00000+0  00000+0 0  9994
2 46114   0.0144  99.2970 0001909  57.3310 256.4257  1.00271849 18272
GAOFEN-13 01            
1 46610U 20071A   25233.50947475 -.00000382  00000+0  00000+0 0  9995
2 46610   0.3111  85.6371 0027649 118.9827  66.9444  1.00271832 17914
TIANTONG-1 2            
1 46916U 20082A   25232.91541514 -.00000374  00000+0  00000+0 0  9995
2 46916   1.3459 301.7747 0001326 295.0766 187.0757  1.00270536 17643
LUCAS (JDRS-1)          
1 47202U 20089A   25232.84680897 -.00000254  00000+0  00000+0 0  9998
2 47202   0.0335  84.9866 0002084  67.8342 212.2128  1.00273162 17405
SXM-7                   
1 47240U 20096A   25232.58819793 -.00000223  00000+0  00000+0 0  9994
2 47240   0.0135 118.2164 0003997  18.5917 318.9074  1.00270415  4444
CMS-01                  
1 47256U 20099A   25232.85739388 -.00000184  00000+0  00000+0 0  9991
2 47256   0.0586  95.5561 0005751 161.7299 103.8021  1.00272431 17181
TURKSAT 5A              
1 47306U 21001A   25232.61125137  .00000136  00000+0  00000+0 0  9992
2 47306   0.0273  92.8754 0000303 171.3931 315.8715  1.00272238 16956
TIANTONG-1 3            
1 47321U 21003A   25233.71899826 -.00000172  00000+0  00000+0 0  9997
2 47321   2.1072 323.8264 0003141 247.1218  99.7061  1.00272265 16951
TJS-6                   
1 47613U 21010A   25232.62752947  .00000025  00000+0  00000+0 0  9996
2 47613   0.1850 261.8710 0000556 210.8318 260.8645  1.00273162 16797
SBIRS GEO-5 (USA 315)   
1 48618U 21042A   25232.76896715 -.00000283  00000+0  00000+0 0  9991
2 48618   5.5053 327.1204 0005922 195.2541 177.8584  1.00277528 15762
FENGYUN 4B              
1 48808U 21047A   25232.82891918 -.00000349  00000+0  00000+0 0  9997
2 48808   0.1567  82.0275 0004441 251.6628  38.8305  1.00273464 15567
SXM-8                   
1 48838U 21049A   25232.59905817 -.00000223  00000+0  00000+0 0  9991
2 48838   0.0142  31.7686 0005123   6.2882  61.6006  1.00270905 15580
TIANLIAN 1-05           
1 49011U 21063A   25232.60847802  .00000089  00000+0  00000+0 0  9991
2 49011   0.8146  82.4441 0003212 120.4528   2.0763  1.00271106 15067
STAR ONE D2             
1 49055U 21069A   25232.59123128 -.00000283  00000+0  00000+0 0  9998
2 49055   0.0116 115.1302 0002439  40.4262 316.4549  1.00270297 14928
EUTELSAT QUANTUM        
1 49056U 21069B   25232.91850185  .00000107  00000+0  00000+0 0  9999
2 49056   0.0054 345.0322 0001801 189.2641 173.5288  1.00270504 14913
ZHONGXING-2E            
1 49062U 21071A   25232.82891918 -.00000310  00000+0  00000+0 0  9995
2 49062   0.0576 284.1145 0001653 264.2123 177.5253  1.00272090 15020
TJS-7                   
1 49115U 21077A   25233.51326147 -.00000143  00000+0  00000+0 0  9998
2 49115   0.2722 268.0053 0002051 197.4539 309.9469  1.00271714  6543
CHINASAT 9B             
1 49125U 21080A   25232.82891918 -.00000331  00000+0  00000+0 0  9998
2 49125   0.0416 265.4716 0003031 260.3396 203.4096  1.00271547 14636
SHIJIAN-21 (SJ-21)      
1 49330U 21094A   25234.62101711 -.00000367  00000+0  00000+0 0  9995
2 49330   4.4328  62.8858 0055612 163.9517  94.9529  1.00281470 14253
SES-17                  
1 49332U 21095A   25232.37768255 -.00000290  00000+0  00000+0 0  9995
2 49332   0.0139  71.1160 0001086  91.8746 234.8244  1.00272207 14836
SYRACUSE 4A             
1 49333U 21095B   25232.91850185  .00000116  00000+0  00000+0 0  9996
2 49333   0.0236 121.0149 0001547  21.0060 203.6270  1.00269023 14940
